BEIDOU-2 IGSO-1 (C06)   
1 36828U 10036A   26064.71564830 -.00000126  00000+0  00000+0 0  9997
2 36828  54.2927 163.8986 0054017 218.9744 143.1840  1.00252203 57065
BEIDOU-2 G4 (C04)       
1 37210U 10057A   26066.61595219 -.00000113  00000+0  00000+0 0  9998
2 37210   3.3946  69.5351 0008659 212.2543 265.2875  1.00272448 56279
BEIDOU-2 IGSO-2 (C07)   
1 37256U 10068A   26063.55016868 -.00000178  00000+0  00000+0 0  9999
2 37256  47.7317 273.1244 0047330 213.1251 341.1802  1.00258965 55745
BEIDOU-2 IGSO-3 (C08)   
1 37384U 11013A   26064.72099782 -.00000170  00000+0  00000+0 0  9990
2 37384  62.2726  41.1265 0035062 190.7768 297.3260  1.00293315 54625
BEIDOU-2 IGSO-4 (C09)   
1 37763U 11038A   26064.72437745 -.00000100  00000+0  00000+0 0  9996
2 37763  54.5899 166.6081 0154581 230.9953 121.0281  1.00265577 53603
BEIDOU-2 IGSO-5 (C10)   
1 37948U 11073A   26066.49097997 -.00000140  00000+0  00000+0 0  9991
2 37948  47.8624 272.8005 0108648 221.1571 303.1286  1.00272115 52115
BEIDOU-2 G5 (C05)       
1 38091U 12008A   26066.62785891  .00000056  00000+0  00000+0 0  9997
2 38091   3.3204  70.2971 0013987 254.8079 125.0679  1.00267557 51351
BEIDOU-2 M3 (C11)       
1 38250U 12018A   26064.01894681 -.00000067  00000+0  00000+0 0  9997
2 38250  55.8459 308.3876 0021147 279.6506  80.1690  1.86229821 94007
BEIDOU-2 M4 (C12)       
1 38251U 12018B   26066.09892081 -.00000070  00000+0  00000+0 0  9994
2 38251  55.7448 307.5395 0012535 286.7509  73.1654  1.86229605 94041
BEIDOU-2 M6 (C14)       
1 38775U 12050B   26065.27214328 -.00000035  00000+0  00000+0 0  9993
2 38775  56.4548  66.2956 0013995 341.9106  18.0562  1.86231015 91390
BEIDOU-2 G6 (C02)       
1 38953U 12059A   26066.09736209 -.00000176  00000+0  00000+0 0  9994
2 38953   4.1630  74.6201 0010745 304.6741 264.5150  1.00269187 48881
BEIDOU-3S IGSO-1S (C31) 
1 40549U 15019A   26065.60071583 -.00000164  00000+0  00000+0 0  9997
2 40549  49.3862 296.6971 0035764 190.6092 349.7460  1.00273571 40045
BEIDOU-3S M2S (C58)     
1 40748U 15037A   26064.15514271 -.00000065  00000+0  00000+0 0  9993
2 40748  54.9621 305.6294 0008821 278.3568  81.6004  1.86231809 72184
BEIDOU-3S M1S (C57)     
1 40749U 15037B   26063.83838846 -.00000064  00000+0  00000+0 0  9994
2 40749  54.9590 305.6285 0004575  30.7270 329.3576  1.86254093 72188
BEIDOU-2 IGSO-6 (C13)   
1 41434U 16021A   26065.88576131 -.00000149  00000+0  00000+0 0  9997
2 41434  60.0901  39.0533 0059780 233.3750 306.7860  1.00278256 36458
BEIDOU-2 G7 (C03)       
1 41586U 16037A   26066.31654309 -.00000354  00000+0  00000+0 0  9993
2 41586   1.4687  68.2513 0007965 343.1007 338.0775  1.00266181  5869
BEIDOU-3 M1 (C19)       
1 43001U 17069A   26063.96368704 -.00000029  00000+0  00000+0 0  9991
2 43001  56.6017  66.5157 0012381 309.6653  50.2473  1.86231070 56664
BEIDOU-3 M2 (C20)       
1 43002U 17069B   26066.58695443 -.00000034  00000+0  00000+0 0  9992
2 43002  56.6029  66.4651 0009792 329.2108  30.7460  1.86230719 56704
BEIDOU-3 M7 (C27)       
1 43107U 18003A   26065.25503818 -.00000069  00000+0  00000+0 0  9992
2 43107  54.4191 305.9051 0004744  71.1404 288.9649  1.86232356 55439
BEIDOU-3 M8 (C28)       
1 43108U 18003B   26065.73756449 -.00000069  00000+0  00000+0 0  9996
2 43108  54.4113 305.8708 0002951 295.0434  64.9788  1.86230889 55457
BEIDOU-3 M4 (C22)       
1 43207U 18018A   26065.64280483 -.00000035  00000+0  00000+0 0  9995
2 43207  56.5621  66.5276 0006868 350.4806   9.5225  1.86231211 54837
BEIDOU-3 M3 (C21)       
1 43208U 18018B   26065.17230069 -.00000035  00000+0  00000+0 0  9999
2 43208  56.5611  66.5473 0009939 319.6399  40.3037  1.86231186 54826
BEIDOU-3 M9 (C29)       
1 43245U 18029A   26063.77860799 -.00000062  00000+0  00000+0 0  9995
2 43245  54.2878 303.6009 0000937  21.7845 338.2765  1.86228195 53959
BEIDOU-3 M10 (C30)      
1 43246U 18029B   26065.86131185 -.00000066  00000+0  00000+0 0  9992
2 43246  54.2835 303.5552 0005193  25.1778 334.8994  1.86228989 53976
BEIDOU-2 IGSO-7 (C16)   
1 43539U 18057A   26066.67398241 -.00000152  00000+0  00000+0 0  9992
2 43539  55.1861 163.9475 0100470 236.7622 119.8698  1.00282277 28109
BEIDOU-3 M5 (C23)       
1 43581U 18062A   26065.01153201  .00000011  00000+0  00000+0 0  9990
2 43581  54.0879 185.8116 0002277 307.0485  52.9036  1.86228711 51716
BEIDOU-3 M6 (C24)       
1 43582U 18062B   26065.41141788  .00000014  00000+0  00000+0 0  9995
2 43582  54.0875 185.7868 0006178  43.6988 316.3254  1.86227738 51729
BEIDOU-3 M12 (C26)      
1 43602U 18067A   26065.88680434  .00000015  00000+0  00000+0 0  9991
2 43602  54.1822 184.5089 0008544  39.5738 320.4688  1.86227805 51219
BEIDOU-3 M11 (C25)      
1 43603U 18067B   26065.48459603  .00000014  00000+0  00000+0 0  9999
2 43603  54.1797 184.4865 0004937  32.9880 327.0209  1.86227201 51233
BEIDOU-3 M13 (C32)      
1 43622U 18072A   26063.82956810 -.00000029  00000+0  00000+0 0  9991
2 43622  56.5333  66.1018 0008916 307.8246  52.1164  1.86230808 50718
BEIDOU-3 M14 (C33)      
1 43623U 18072B   26063.69502611 -.00000028  00000+0  00000+0 0  9992
2 43623  56.5350  66.1003 0006376 328.8150  31.1695  1.86230841 50709
BEIDOU-3 M16 (C35)      
1 43647U 18078A   26065.99967373 -.00000066  00000+0  00000+0 0  9991
2 43647  54.1822 303.5696 0008467  31.5252 328.5770  1.86232416 50250
BEIDOU-3 M15 (C34)      
1 43648U 18078B   26062.37035185 -.00000055  00000+0  00000+0 0  9996
2 43648  54.1808 303.6975 0005342  38.8897 321.2084  1.86232017 50200
BEIDOU-3 G1 (C59)       
1 43683U 18085A   26066.44836589 -.00000280  00000+0  00000+0 0  9992
2 43683   2.8182 100.2970 0001615  13.9526 352.3140  1.00267773 27049
BEIDOU-3 M17 (C36)      
1 43706U 18093A   26066.28239240  .00000017  00000+0  00000+0 0  9997
2 43706  54.1710 185.7532 0007135 296.7354  59.0219  1.86228475 49634
BEIDOU-3 M18 (C37)      
1 43707U 18093B   26065.61398671  .00000015  00000+0  00000+0 0  9996
2 43707  54.1721 185.7677 0006020 341.1146  18.8397  1.86226588 49625
BEIDOU-3 IGSO-1 (C38)   
1 44204U 19023A   26066.31827644 -.00000205  00000+0  00000+0 0  9990
2 44204  58.5580  38.6956 0025959 236.3216 123.7068  1.00270320  6195
BEIDOU-2 G8 (C01)       
1 44231U 19027A   26066.40322377 -.00000249  00000+0  00000+0 0  9995
2 44231   1.4004  74.2594 0011606 272.0527 108.3854  1.00275598 25064
BEIDOU-3 IGSO-2 (C39)   
1 44337U 19035A   26057.68879618 -.00000176  00000+0  00000+0 0  9995
2 44337  55.2338 159.8353 0038734 206.4752 153.7223  1.00247364 24561
BEIDOU-3 M24 (C46)      
1 44542U 19061A   26065.14698275  .00000012  00000+0  00000+0 0  9998
2 44542  54.3990 186.2022 0008590  20.7979 339.2100  1.86228900 43874
BEIDOU-3 M23 (C45)      
1 44543U 19061B   26066.34628199  .00000017  00000+0  00000+0 0  9995
2 44543  54.3975 186.1302 0005055  13.3914 342.9182  1.86227456 43896
BEIDOU-3 IGSO-3 (C40)   
1 44709U 19073A   26063.99963149 -.00000162  00000+0  00000+0 0  9999
2 44709  54.9773 282.0232 0040551 188.9231 171.0493  1.00269134 23418
BEIDOU-3 M22 (C44)      
1 44793U 19078A   26066.06018572 -.00000065  00000+0  00000+0 0  9991
2 44793  54.0280 303.4217 0007398  37.4223 322.6804  1.86232046 42740
BEIDOU-3 M21 (C43)      
1 44794U 19078B   26066.19978304 -.00000065  00000+0  00000+0 0  9994
2 44794  54.0014 303.3801 0005318  31.7457 328.3372  1.86227693 42756
BEIDOU-3 M19 (C41)      
1 44864U 19090A   26064.56032794 -.00000033  00000+0  00000+0 0  9994
2 44864  56.4687  66.2141 0020433 291.4658 245.9437  1.86231373 42308
BEIDOU-3 M20 (C42)      
1 44865U 19090B   26064.42720734 -.00000032  00000+0  00000+0 0  9997
2 44865  56.4702  66.2529 0017835 302.9017 234.8674  1.86231388 42289
BEIDOU-3 G2 (C60)       
1 45344U 20017A   26066.64416351 -.00000141  00000+0  00000+0 0  9995
2 45344   2.6606  45.6423 0002731 312.4913 119.1467  1.00272784 22242
BEIDOU-3 G3 (C61)       
1 45807U 20040A   26066.31662976 -.00000355  00000+0  00000+0 0  9992
2 45807   2.1970  67.1394 0004605 320.2031   2.1784  1.00274224 21042
BEIDOU-3 G4 (C62)       
1 56564U 23066A   26066.61816492 -.00000112  00000+0  00000+0 0  9993
2 56564   0.6429 311.3646 0002340 155.5272  81.0116  1.00272485 10376
BEIDOU-3 M28 (C50)      
1 58654U 23207A   26065.20334731 -.00000038  00000+0  00000+0 0  9994
2 58654  55.6620  65.7757 0004930 303.3418  56.6273  1.86229805 14925
BEIDOU-3 M26 (C48)      
1 58655U 23207B   26065.53778212 -.00000039  00000+0  00000+0 0  9998
2 58655  55.6644  65.7507 0005731 288.8087  71.1446  1.86229716 14918
BEIDOU-3 M25 (C47)      
1 61186U 24168B   26066.16989234 -.00000069  00000+0  00000+0 0  9999
2 61186  54.5633 305.7886 0004258 319.2946 221.4621  1.86230307  9883
BEIDOU-3 M27 (C49)      
1 61187U 24168C   26064.31689484 -.00000067  00000+0  00000+0 0  9997
2 61187  54.5604 305.8361 0002980  20.4343 132.9740  1.86230358  7324
